ONEWEB-0363             
1 49289U 21090L   24174.17213876  .00000079  00000+0  16180-3 0  9991
2 49289  87.9211  58.6899 0001717  90.9007 269.2323 13.20771385134606
ONEWEB-0364             
1 49290U 21090M   24174.58881047  .00000032  00000+0  46453-4 0  9995
2 49290  87.9211  58.6321 0001899  83.8800 276.2550 13.20771726135791
ONEWEB-0365             
1 49291U 21090N   24174.83307365  .00000012  00000+0 -16357-5 0  9990
2 49291  87.9149  89.1110 0002064  75.6593 284.4769 13.19726053132173
ONEWEB-0366             
1 49292U 21090P   24174.26175220  .00000211  00000+0  53510-3 0  9991
2 49292  87.8968  73.9438 0002044  81.4842 278.6519 13.14504156132324
ONEWEB-0367             
1 49293U 21090Q   24174.24632575  .00000090  00000+0  19056-3 0  9993
2 49293  87.9211  58.6696 0002133  83.9540 276.1836 13.20773009134132
ONEWEB-0368             
1 49294U 21090R   24174.74979774  .00000016  00000+0  84128-5 0  9996
2 49294  87.9211  58.5997 0002504  96.5874 263.5544 13.20771623136653
ONEWEB-0369             
1 49295U 21090S   24174.82832853 -.00000029  00000+0 -10467-3 0  9991
2 49295  87.9156  89.1153 0002160  78.4403 281.6973 13.19725790132162
ONEWEB-0370             
1 49296U 21090T   24174.71033190  .00000092  00000+0  19390-3 0  9999
2 49296  87.9210  58.5817 0001623  70.7621 289.3687 13.20770230135533
